QIANFAN-103             
1 66045U 25233N   26062.56910199  .00000044  00000+0  48950-4 0  9999
2 66045  88.9933  53.8694 0001885  91.3273 268.8094 13.51006084 18920
QIANFAN-104             
1 66046U 25233P   26062.57300767  .00000032  00000+0  31585-4 0  9998
2 66046  88.9937  53.7664 0002083  86.0778 274.0611 13.51010110 18977
QIANFAN-105             
1 66047U 25233Q   26062.58113213  .00000029  00000+0  25880-4 0  9995
2 66047  88.9950  53.5946 0002014  92.4794 267.6587 13.50981382 19087
QIANFAN-106             
1 66048U 25233R   26062.57728241  .00000029  00000+0  25655-4 0  9998
2 66048  88.9919  53.8411 0002381  86.9663 273.1761 13.51005079 18933
QIANFAN-107             
1 66049U 25233S   26062.58553868  .00000030  00000+0  27734-4 0  9993
2 66049  88.9935  53.8559 0001910  90.3423 269.7947 13.51003083 18935
QIANFAN-108             
1 66050U 25233T   26062.58964542  .00000033  00000+0  31728-4 0  9991
2 66050  88.9928  53.8507 0002333  86.4610 273.6808 13.51004588 18937
