[{"OBJECT_NAME":"QIANFAN-103","OBJECT_ID":"2025-233N","EPOCH":"2026-03-03T13:39:30.411936","MEAN_MOTION":13.51006084,"ECCENTRICITY":0.00018855,"INCLINATION":88.9933,"RA_OF_ASC_NODE":53.8694,"ARG_OF_PERICENTER":91.3273,"MEAN_ANOMALY":268.8094,"EPHEMERIS_TYPE":0,"CLASSIFICATION_TYPE":"U","NORAD_CAT_ID":66045,"ELEMENT_SET_NO":999,"REV_AT_EPOCH":1892,"BSTAR":4.8950446e-5,"MEAN_MOTION_DOT":4.4e-7,"MEAN_MOTION_DDOT":0},{"OBJECT_NAME":"QIANFAN-104","OBJECT_ID":"2025-233P","EPOCH":"2026-03-03T13:45:07.862688","MEAN_MOTION":13.5101011,"ECCENTRICITY":0.00020835,"INCLINATION":88.9937,"RA_OF_ASC_NODE":53.7664,"ARG_OF_PERICENTER":86.0778,"MEAN_ANOMALY":274.0611,"EPHEMERIS_TYPE":0,"CLASSIFICATION_TYPE":"U","NORAD_CAT_ID":66046,"ELEMENT_SET_NO":999,"REV_AT_EPOCH":1897,"BSTAR":3.1585223e-5,"MEAN_MOTION_DOT":3.2e-7,"MEAN_MOTION_DDOT":0},{"OBJECT_NAME":"QIANFAN-105","OBJECT_ID":"2025-233Q","EPOCH":"2026-03-03T13:56:49.816032","MEAN_MOTION":13.50981382,"ECCENTRICITY":0.0002014,"INCLINATION":88.995,"RA_OF_ASC_NODE":53.5946,"ARG_OF_PERICENTER":92.4794,"MEAN_ANOMALY":267.6587,"EPHEMERIS_TYPE":0,"CLASSIFICATION_TYPE":"U","NORAD_CAT_ID":66047,"ELEMENT_SET_NO":999,"REV_AT_EPOCH":1908,"BSTAR":2.5879635e-5,"MEAN_MOTION_DOT":2.9e-7,"MEAN_MOTION_DDOT":0},{"OBJECT_NAME":"QIANFAN-106","OBJECT_ID":"2025-233R","EPOCH":"2026-03-03T13:51:17.200224","MEAN_MOTION":13.51005079,"ECCENTRICITY":0.00023816,"INCLINATION":88.9919,"RA_OF_ASC_NODE":53.8411,"ARG_OF_PERICENTER":86.9663,"MEAN_ANOMALY":273.1761,"EPHEMERIS_TYPE":0,"CLASSIFICATION_TYPE":"U","NORAD_CAT_ID":66048,"ELEMENT_SET_NO":999,"REV_AT_EPOCH":1893,"BSTAR":2.5655492e-5,"MEAN_MOTION_DOT":2.9e-7,"MEAN_MOTION_DDOT":0},{"OBJECT_NAME":"QIANFAN-107","OBJECT_ID":"2025-233S","EPOCH":"2026-03-03T14:03:10.541952","MEAN_MOTION":13.51003083,"ECCENTRICITY":0.000191,"INCLINATION":88.9935,"RA_OF_ASC_NODE":53.8559,"ARG_OF_PERICENTER":90.3423,"MEAN_ANOMALY":269.7947,"EPHEMERIS_TYPE":0,"CLASSIFICATION_TYPE":"U","NORAD_CAT_ID":66049,"ELEMENT_SET_NO":999,"REV_AT_EPOCH":1893,"BSTAR":2.7733885e-5,"MEAN_MOTION_DOT":3.0e-7,"MEAN_MOTION_DDOT":0},{"OBJECT_NAME":"QIANFAN-108","OBJECT_ID":"2025-233T","EPOCH":"2026-03-03T14:09:05.364288","MEAN_MOTION":13.51004588,"ECCENTRICITY":0.00023337,"INCLINATION":88.9928,"RA_OF_ASC_NODE":53.8507,"ARG_OF_PERICENTER":86.461,"MEAN_ANOMALY":273.6808,"EPHEMERIS_TYPE":0,"CLASSIFICATION_TYPE":"U","NORAD_CAT_ID":66050,"ELEMENT_SET_NO":999,"REV_AT_EPOCH":1893,"BSTAR":3.1728461e-5,"MEAN_MOTION_DOT":3.3e-7,"MEAN_MOTION_DDOT":0}]
